[{"OBJECT_NAME":"ONEWEB-0421","OBJECT_ID":"2021-132AD","EPOCH":"2026-01-29T22:02:37.981824","MEAN_MOTION":13.18687506,"ECCENTRICITY":0.00018708,"INCLINATION":87.9206,"RA_OF_ASC_NODE":2.9061,"ARG_OF_PERICENTER":73.8728,"MEAN_ANOMALY":286.261,"EPHEMERIS_TYPE":0,"CLASSIFICATION_TYPE":"U","NORAD_CAT_ID":50496,"ELEMENT_SET_NO":999,"REV_AT_EPOCH":20339,"BSTAR":2.3822361e-5,"MEAN_MOTION_DOT":2.2e-7,"MEAN_MOTION_DDOT":0},{"OBJECT_NAME":"ONEWEB-0424","OBJECT_ID":"2021-132AE","EPOCH":"2026-01-29T22:54:53.430912","MEAN_MOTION":13.18686347,"ECCENTRICITY":0.0001922,"INCLINATION":87.9206,"RA_OF_ASC_NODE":2.8939,"ARG_OF_PERICENTER":95.3994,"MEAN_ANOMALY":264.7357,"EPHEMERIS_TYPE":0,"CLASSIFICATION_TYPE":"U","NORAD_CAT_ID":50497,"ELEMENT_SET_NO":999,"REV_AT_EPOCH":20342,"BSTAR":8.0487815e-5,"MEAN_MOTION_DOT":4.5e-7,"MEAN_MOTION_DDOT":0},{"OBJECT_NAME":"ONEWEB-0426","OBJECT_ID":"2021-132AF","EPOCH":"2026-01-29T21:57:52.968096","MEAN_MOTION":13.18686586,"ECCENTRICITY":0.00023238,"INCLINATION":87.9206,"RA_OF_ASC_NODE":2.894,"ARG_OF_PERICENTER":70.4149,"MEAN_ANOMALY":289.7234,"EPHEMERIS_TYPE":0,"CLASSIFICATION_TYPE":"U","NORAD_CAT_ID":50498,"ELEMENT_SET_NO":999,"REV_AT_EPOCH":20336,"BSTAR":-8.2173106e-5,"MEAN_MOTION_DOT":-1.9e-7,"MEAN_MOTION_DDOT":0},{"OBJECT_NAME":"ONEWEB-0427","OBJECT_ID":"2021-132AG","EPOCH":"2026-01-30T04:20:16.562400","MEAN_MOTION":13.18685257,"ECCENTRICITY":0.00020835,"INCLINATION":87.9207,"RA_OF_ASC_NODE":2.8273,"ARG_OF_PERICENTER":84.5255,"MEAN_ANOMALY":275.6115,"EPHEMERIS_TYPE":0,"CLASSIFICATION_TYPE":"U","NORAD_CAT_ID":50499,"ELEMENT_SET_NO":999,"REV_AT_EPOCH":20342,"BSTAR":-0.00088166448,"MEAN_MOTION_DOT":-3.35e-6,"MEAN_MOTION_DDOT":0},{"OBJECT_NAME":"ONEWEB-0429","OBJECT_ID":"2021-132AH","EPOCH":"2026-01-30T04:01:17.047488","MEAN_MOTION":13.18686642,"ECCENTRICITY":0.0001632,"INCLINATION":87.9205,"RA_OF_ASC_NODE":2.863,"ARG_OF_PERICENTER":83.8688,"MEAN_ANOMALY":276.263,"EPHEMERIS_TYPE":0,"CLASSIFICATION_TYPE":"U","NORAD_CAT_ID":50500,"ELEMENT_SET_NO":999,"REV_AT_EPOCH":20339,"BSTAR":-0.00016531459,"MEAN_MOTION_DOT":-5.2e-7,"MEAN_MOTION_DDOT":0},{"OBJECT_NAME":"ONEWEB-0430","OBJECT_ID":"2021-132AJ","EPOCH":"2026-01-30T03:44:40.556544","MEAN_MOTION":13.18687011,"ECCENTRICITY":0.00016788,"INCLINATION":87.9206,"RA_OF_ASC_NODE":2.8619,"ARG_OF_PERICENTER":91.2598,"MEAN_ANOMALY":268.8726,"EPHEMERIS_TYPE":0,"CLASSIFICATION_TYPE":"U","NORAD_CAT_ID":50501,"ELEMENT_SET_NO":999,"REV_AT_EPOCH":20343,"BSTAR":0.00020608004,"MEAN_MOTION_DOT":9.4e-7,"MEAN_MOTION_DDOT":0},{"OBJECT_NAME":"ONEWEB-0432","OBJECT_ID":"2021-132AK","EPOCH":"2026-01-29T23:03:14.147424","MEAN_MOTION":13.18680769,"ECCENTRICITY":0.00026015,"INCLINATION":87.9201,"RA_OF_ASC_NODE":2.8697,"ARG_OF_PERICENTER":97.6731,"MEAN_ANOMALY":262.4697,"EPHEMERIS_TYPE":0,"CLASSIFICATION_TYPE":"U","NORAD_CAT_ID":50502,"ELEMENT_SET_NO":999,"REV_AT_EPOCH":20336,"BSTAR":3.1161156e-5,"MEAN_MOTION_DOT":2.5e-7,"MEAN_MOTION_DDOT":0},{"OBJECT_NAME":"ONEWEB-0440","OBJECT_ID":"2021-132AL","EPOCH":"2026-01-29T22:45:23.139072","MEAN_MOTION":13.18687382,"ECCENTRICITY":0.00015664,"INCLINATION":87.9206,"RA_OF_ASC_NODE":2.8925,"ARG_OF_PERICENTER":71.5833,"MEAN_ANOMALY":288.5469,"EPHEMERIS_TYPE":0,"CLASSIFICATION_TYPE":"U","NORAD_CAT_ID":50503,"ELEMENT_SET_NO":999,"REV_AT_EPOCH":20335,"BSTAR":-7.823978e-6,"MEAN_MOTION_DOT":1.0e-7,"MEAN_MOTION_DDOT":0},{"OBJECT_NAME":"ONEWEB-0450","OBJECT_ID":"2021-132AM","EPOCH":"2026-01-29T22:36:04.328928","MEAN_MOTION":13.18687877,"ECCENTRICITY":0.0001527,"INCLINATION":87.9199,"RA_OF_ASC_NODE":2.9132,"ARG_OF_PERICENTER":87.7864,"MEAN_ANOMALY":272.3443,"EPHEMERIS_TYPE":0,"CLASSIFICATION_TYPE":"U","NORAD_CAT_ID":50504,"ELEMENT_SET_NO":999,"REV_AT_EPOCH":20338,"BSTAR":0.00014669293,"MEAN_MOTION_DOT":7.1e-7,"MEAN_MOTION_DDOT":0},{"OBJECT_NAME":"ONEWEB-0410","OBJECT_ID":"2022-012A","EPOCH":"2026-01-30T05:47:26.455488","MEAN_MOTION":13.17649031,"ECCENTRICITY":0.00031672,"INCLINATION":87.9101,"RA_OF_ASC_NODE":33.2546,"ARG_OF_PERICENTER":80.0592,"MEAN_ANOMALY":280.0896,"EPHEMERIS_TYPE":0,"CLASSIFICATION_TYPE":"U","NORAD_CAT_ID":51622,"ELEMENT_SET_NO":999,"REV_AT_EPOCH":19553,"BSTAR":-2.5644488e-5,"MEAN_MOTION_DOT":3.0e-8,"MEAN_MOTION_DDOT":0},{"OBJECT_NAME":"ONEWEB-0411","OBJECT_ID":"2022-012B","EPOCH":"2026-01-30T02:40:20.150112","MEAN_MOTION":13.10371334,"ECCENTRICITY":0.00017986,"INCLINATION":87.8754,"RA_OF_ASC_NODE":63.7815,"ARG_OF_PERICENTER":114.9067,"MEAN_ANOMALY":245.2248,"EPHEMERIS_TYPE":0,"CLASSIFICATION_TYPE":"U","NORAD_CAT_ID":51623,"ELEMENT_SET_NO":999,"REV_AT_EPOCH":19120,"BSTAR":-0.0015818201,"MEAN_MOTION_DOT":-5.39e-6,"MEAN_MOTION_DDOT":0},{"OBJECT_NAME":"ONEWEB-0415","OBJECT_ID":"2022-012C","EPOCH":"2026-01-30T02:35:32.939232","MEAN_MOTION":13.10370497,"ECCENTRICITY":0.00018334,"INCLINATION":87.8753,"RA_OF_ASC_NODE":63.7851,"ARG_OF_PERICENTER":105.5331,"MEAN_ANOMALY":254.5999,"EPHEMERIS_TYPE":0,"CLASSIFICATION_TYPE":"U","NORAD_CAT_ID":51624,"ELEMENT_SET_NO":999,"REV_AT_EPOCH":19120,"BSTAR":-0.0012814288,"MEAN_MOTION_DOT":-4.35e-6,"MEAN_MOTION_DDOT":0},{"OBJECT_NAME":"ONEWEB-0416","OBJECT_ID":"2022-012D","EPOCH":"2026-01-30T02:52:16.964256","MEAN_MOTION":13.10373394,"ECCENTRICITY":0.0002155,"INCLINATION":87.8757,"RA_OF_ASC_NODE":63.8033,"ARG_OF_PERICENTER":106.0794,"MEAN_ANOMALY":254.057,"EPHEMERIS_TYPE":0,"CLASSIFICATION_TYPE":"U","NORAD_CAT_ID":51625,"ELEMENT_SET_NO":999,"REV_AT_EPOCH":19124,"BSTAR":-0.0016728599,"MEAN_MOTION_DOT":-5.71e-6,"MEAN_MOTION_DDOT":0},{"OBJECT_NAME":"ONEWEB-0422","OBJECT_ID":"2022-012E","EPOCH":"2026-01-30T00:33:57.020832","MEAN_MOTION":13.17650733,"ECCENTRICITY":0.00011809,"INCLINATION":87.9096,"RA_OF_ASC_NODE":33.3008,"ARG_OF_PERICENTER":79.5708,"MEAN_ANOMALY":280.5557,"EPHEMERIS_TYPE":0,"CLASSIFICATION_TYPE":"U","NORAD_CAT_ID":51626,"ELEMENT_SET_NO":999,"REV_AT_EPOCH":19561,"BSTAR":9.9877001e-5,"MEAN_MOTION_DOT":5.2e-7,"MEAN_MOTION_DDOT":0},{"OBJECT_NAME":"ONEWEB-0423","OBJECT_ID":"2022-012F","EPOCH":"2026-01-30T00:24:12.823776","MEAN_MOTION":13.17648604,"ECCENTRICITY":0.00017691,"INCLINATION":87.9096,"RA_OF_ASC_NODE":33.3117,"ARG_OF_PERICENTER":84.9882,"MEAN_ANOMALY":275.1451,"EPHEMERIS_TYPE":0,"CLASSIFICATION_TYPE":"U","NORAD_CAT_ID":51627,"ELEMENT_SET_NO":999,"REV_AT_EPOCH":19550,"BSTAR":-0.00053494357,"MEAN_MOTION_DOT":-1.95e-6,"MEAN_MOTION_DDOT":0},{"OBJECT_NAME":"ONEWEB-0425","OBJECT_ID":"2022-012G","EPOCH":"2026-01-30T03:06:37.903104","MEAN_MOTION":13.10376766,"ECCENTRICITY":0.0002133,"INCLINATION":87.8765,"RA_OF_ASC_NODE":63.7763,"ARG_OF_PERICENTER":88.9849,"MEAN_ANOMALY":271.1523,"EPHEMERIS_TYPE":0,"CLASSIFICATION_TYPE":"U","NORAD_CAT_ID":51628,"ELEMENT_SET_NO":999,"REV_AT_EPOCH":19124,"BSTAR":-0.00099124,"MEAN_MOTION_DOT":-3.33e-6,"MEAN_MOTION_DDOT":0},{"OBJECT_NAME":"ONEWEB-0428","OBJECT_ID":"2022-012H","EPOCH":"2026-01-30T02:37:56.342496","MEAN_MOTION":13.10370756,"ECCENTRICITY":0.00017867,"INCLINATION":87.8756,"RA_OF_ASC_NODE":63.7958,"ARG_OF_PERICENTER":95.0969,"MEAN_ANOMALY":265.0363,"EPHEMERIS_TYPE":0,"CLASSIFICATION_TYPE":"U","NORAD_CAT_ID":51629,"ELEMENT_SET_NO":999,"REV_AT_EPOCH":19120,"BSTAR":-0.0016442405,"MEAN_MOTION_DOT":-5.61e-6,"MEAN_MOTION_DDOT":0}]
