ONEWEB-0421             
1 50496U 21132AD  26029.91849516  .00000022  00000+0  23822-4 0  9999
2 50496  87.9206   2.9061 0001870  73.8728 286.2610 13.18687506203394
ONEWEB-0424             
1 50497U 21132AE  26029.95478508  .00000045  00000+0  80488-4 0  9999
2 50497  87.9206   2.8939 0001922  95.3994 264.7357 13.18686347203425
ONEWEB-0426             
1 50498U 21132AF  26029.91519639 -.00000019  00000+0 -82173-4 0  9993
2 50498  87.9206   2.8940 0002323  70.4149 289.7234 13.18686586203369
ONEWEB-0427             
1 50499U 21132AG  26030.18074725 -.00000335  00000+0 -88166-3 0  9995
2 50499  87.9207   2.8273 0002083  84.5255 275.6115 13.18685257203420
ONEWEB-0429             
1 50500U 21132AH  26030.16755842 -.00000052  00000+0 -16531-3 0  9995
2 50500  87.9205   2.8630 0001632  83.8688 276.2630 13.18686642203393
ONEWEB-0430             
1 50501U 21132AJ  26030.15602496  .00000094  00000+0  20608-3 0  9995
2 50501  87.9206   2.8619 0001678  91.2598 268.8726 13.18687011203434
ONEWEB-0432             
1 50502U 21132AK  26029.96058041  .00000025  00000+0  31161-4 0  9995
2 50502  87.9201   2.8697 0002601  97.6731 262.4697 13.18680769203364
ONEWEB-0440             
1 50503U 21132AL  26029.94818448  .00000010  00000+0 -78240-5 0  9994
2 50503  87.9206   2.8925 0001566  71.5833 288.5469 13.18687382203350
ONEWEB-0450             
1 50504U 21132AM  26029.94171677  .00000071  00000+0  14669-3 0  9990
2 50504  87.9199   2.9132 0001527  87.7864 272.3443 13.18687877203388
ONEWEB-0410             
1 51622U 22012A   26030.24127842  .00000003  00000+0 -25644-4 0  9992
2 51622  87.9101  33.2546 0003167  80.0592 280.0896 13.17649031195539
ONEWEB-0411             
1 51623U 22012B   26030.11134433 -.00000539  00000+0 -15818-2 0  9998
2 51623  87.8754  63.7815 0001798 114.9067 245.2248 13.10371334191207
ONEWEB-0415             
1 51624U 22012C   26030.10802013 -.00000435  00000+0 -12814-2 0  9992
2 51624  87.8753  63.7851 0001833 105.5331 254.5999 13.10370497191202
ONEWEB-0416             
1 51625U 22012D   26030.11964079 -.00000571  00000+0 -16729-2 0  9995
2 51625  87.8757  63.8033 0002155 106.0794 254.0570 13.10373394191240
ONEWEB-0422             
1 51626U 22012E   26030.02357663  .00000052  00000+0  99877-4 0  9990
2 51626  87.9096  33.3008 0001180  79.5708 280.5557 13.17650733195614
ONEWEB-0423             
1 51627U 22012F   26030.01681509 -.00000195  00000+0 -53494-3 0  9993
2 51627  87.9096  33.3117 0001769  84.9882 275.1451 13.17648604195507
ONEWEB-0425             
1 51628U 22012G   26030.12960536 -.00000333  00000+0 -99124-3 0  9990
2 51628  87.8765  63.7763 0002133  88.9849 271.1523 13.10376766191240
ONEWEB-0428             
1 51629U 22012H   26030.10967989 -.00000561  00000+0 -16442-2 0  9992
2 51629  87.8756  63.7958 0001786  95.0969 265.0363 13.10370756191205
